HULIANWANG DIGUI-91     
1 65999U 25231E   26060.48332808 -.00000115  00000+0  18433-4 0  9991
2 65999  50.0000 201.9551 0000630 173.3762 186.7119 13.29329864 18566
HULIANWANG DIGUI-92     
1 66000U 25231F   26060.47496520 -.00000126  00000+0 -49022-5 0  9998
2 66000  50.0041 201.9556 0000630 173.3050 186.7831 13.29330302 18560
HULIANWANG DIGUI-93     
1 66001U 25231G   26060.45829061 -.00000115  00000+0  20461-4 0  9999
2 66001  50.0008 201.8367 0000611 172.4323 187.6558 13.29329342 18563
HULIANWANG DIGUI-94     
1 66002U 25231H   26060.46661431 -.00000117  00000+0  15343-4 0  9991
2 66002  50.0047 201.9235 0000630 173.0174 187.0707 13.29330509 18561
HULIANWANG DIGUI-95     
1 66003U 25231J   26060.45006978 -.00000101  00000+0  48580-4 0  9992
2 66003  50.0020 201.8078 0000633 169.5601 190.5285 13.29325473 18569
HULIANWANG DIGUI-96     
1 66412U 25258A   26060.09767202 -.00000070  00000+0  11697-3 0  9992
2 66412  50.0056 323.3054 0000341  83.7201 276.3710 13.29330778 15359
HULIANWANG DIGUI-97     
1 66413U 25258B   26060.20625330 -.00000057  00000+0  14397-3 0  9996
2 66413  50.0024 323.1755 0000340  84.1889 275.9021 13.29331898 15362
HULIANWANG DIGUI-98     
1 66414U 25258C   26060.27305703 -.00000057  00000+0  14360-3 0  9993
2 66414  50.0061 322.9030 0000391  99.6016 260.4901 13.29333453 15372
HULIANWANG DIGUI-99     
1 66415U 25258D   26060.46520110 -.00000049  00000+0  16085-3 0  9993
2 66415  50.0059 321.9149 0000287  74.9332 285.1572 13.29330963 15394
HULIANWANG DIGUI-100    
1 66416U 25258E   26060.26471023 -.00000054  00000+0  14996-3 0  9995
2 66416  50.0063 322.8619 0000263  72.2807 287.8094 13.29333928 15385
HULIANWANG DIGUI-101    
1 66417U 25258F   26060.48190296 -.00000055  00000+0  14961-3 0  9993
2 66417  50.0013 321.9525 0000294  68.4167 291.6736 13.29332116 15415
HULIANWANG DIGUI-102    
1 66418U 25258G   26060.45681777 -.00000056  00000+0  14640-3 0  9995
2 66418  50.0027 321.8324 0000294  93.1271 266.9634 13.29334101 15405
HULIANWANG DIGUI-103    
1 66419U 25258H   26060.22294512 -.00000054  00000+0  15103-3 0  9991
2 66419  50.0020 322.5904 0000233  64.0569 296.0327 13.29333132 15373
HULIANWANG DIGUI-104    
1 66420U 25258J   26060.21460419 -.00000056  00000+0  14615-3 0  9992
2 66420  50.0037 322.5689 0000326  96.4147 263.6762 13.29332537 15367
HULIANWANG DIGUI-105    
1 66915U 25285A   26059.31638700 -.00000093  00000+0  66899-4 0  9993
2 66915  50.0043 176.6806 0000508 190.4066 169.6796 13.29578286 11573
HULIANWANG DIGUI-106    
1 66916U 25285B   26058.78179059 -.00581256  00000+0 -13034+1 0  9996
2 66916  50.0026 178.5369 0006824  11.5860 348.5168 13.29772353 11507
HULIANWANG DIGUI-107    
1 66917U 25285C   26059.29977851 -.00000088  00000+0  76679-4 0  9996
2 66917  50.0019 176.5776 0000555 318.2507  41.8322 13.29664730 11571
HULIANWANG DIGUI-108    
1 66918U 25285D   26059.21628291 -.00000107  00000+0  36917-4 0  9993
2 66918  50.0047 176.8189 0000418 224.7159 135.3680 13.29682482 11565
HULIANWANG DIGUI-109    
1 66919U 25285E   26059.28313185 -.00000082  00000+0  90798-4 0  9993
2 66919  50.0065 176.5261 0000396 341.1917  18.8941 13.29713399 11584
HULIANWANG DIGUI-110    
1 66920U 25285F   26059.95127934 -.00000078  00000+0  98577-4 0  9992
2 66920  50.0098 174.0804 0000032 284.3501  75.7368 13.29517571 11660
HULIANWANG DIGUI-111    
1 66921U 25285G   26059.04097973 -.00000094  00000+0  65674-4 0  9992
2 66921  50.0112 177.2860 0000375 254.3097 105.7734 13.29836835 11547
HULIANWANG DIGUI-112    
1 66922U 25285H   26059.40843219 -.00000095  00000+0  62119-4 0  9997
2 66922  50.0079 175.8677 0000257 318.2156  41.8697 13.29691950 11595
HULIANWANG DIGUI-113    
1 66923U 25285J   26058.64876359 -.00000202  00000+0 -16368-3 0  9999
2 66923  50.0136 178.5259 0000690  90.8164 269.2788 13.30492244 11492
HULIANWANG DIGUI-114    
1 66953U 25287A   26060.41032110  .00000045  00000+0  71054-4 0  9998
2 66953  86.4980 318.8056 0001972  82.0166 278.1192 13.24415221 11073
HULIANWANG DIGUI-115    
1 66954U 25287B   26060.47829719  .00000048  00000+0  76896-4 0  9996
2 66954  86.4996 318.7911 0002056  81.6996 278.4371 13.24415326 11089
HULIANWANG DIGUI-116    
1 66955U 25287C   26060.47075073  .00000048  00000+0  78271-4 0  9992
2 66955  86.4936 318.7325 0002052  81.5960 278.5407 13.24415450 11088
HULIANWANG DIGUI-117    
1 66956U 25287D   26060.46323057  .00000050  00000+0  81633-4 0  9999
2 66956  86.4996 318.7845 0001525  24.9141 335.2066 13.24413583 11085
HULIANWANG DIGUI-118    
1 66957U 25287E   26060.45566304  .00000068  00000+0  12492-3 0  9998
2 66957  86.4972 318.7592 0002037  81.6547 278.4818 13.24414860 11080
HULIANWANG DIGUI-119    
1 67059U 25295A   26058.89667431 -.00000063  00000+0  10071-3 0  9996
2 67059  50.0037  59.4576 0000273 308.3868  51.6991 13.55200543 10930
HULIANWANG DIGUI-120    
1 67060U 25295B   26058.81111874 -.00000066  00000+0  96831-4 0  9997
2 67060  50.0044  59.6752 0001154 307.1457  52.9321 13.55588365 10929
